{
    "links": {
        "self": "http://www.neowsapp.com/rest/v1/neo/3819743?api_key=iIulBulltgU6a56xZRHN4H3l9WmuAYTsLGpBGhQ2"
    },
    "id": "3819743",
    "neo_reference_id": "3819743",
    "name": "(2018 JJ)",
    "designation": "2018 JJ",
    "nasa_jpl_url": "http://ssd.jpl.nasa.gov/sbdb.cgi?sstr=3819743",
    "absolute_magnitude_h": 24.2,
    "estimated_diameter": {
        "kilometers": {
            "estimated_diameter_min": 0.0384197891,
            "estimated_diameter_max": 0.0859092601
        },
        "meters": {
            "estimated_diameter_min": 38.4197891064,
            "estimated_diameter_max": 85.9092601232
        },
        "miles": {
            "estimated_diameter_min": 0.0238729428,
            "estimated_diameter_max": 0.0533815229
        },
        "feet": {
            "estimated_diameter_min": 126.0491808919,
            "estimated_diameter_max": 281.8545369825
        }
    },
    "is_potentially_hazardous_asteroid": false,
    "close_approach_data": [
        {
            "close_approach_date": "2018-05-10",
            "close_approach_date_full": "2018-May-10 17:49",
            "epoch_date_close_approach": 1525974540000,
            "relative_velocity": {
                "kilometers_per_second": "12.6705409887",
                "kilometers_per_hour": "45613.9475594345",
                "miles_per_hour": "28342.7331376942"
            },
            "miss_distance": {
                "astronomical": "0.0334897104",
                "lunar": "13.0274973456",
                "kilometers": "5009989.342756848",
                "miles": "3113063.0229385824"
            },
            "orbiting_body": "Earth"
        }
    ],
    "orbital_data": {
        "orbit_id": "1",
        "orbit_determination_date": "2018-05-07 17:12:13",
        "first_observation_date": "2018-05-05",
        "last_observation_date": "2018-05-07",
        "data_arc_in_days": 2,
        "observations_used": 60,
        "orbit_uncertainty": "8",
        "minimum_orbit_intersection": ".0307485",
        "jupiter_tisserand_invariant": "3.683",
        "epoch_osculation": "2458244.5",
        "eccentricity": ".5569456000382398",
        "semi_major_axis": "1.947898829376012",
        "inclination": "5.370656116727533",
        "ascending_node_longitude": "66.49475045094941",
        "orbital_period": "992.9971951215659",
        "perihelion_distance": ".8630251470354039",
        "perihelion_argument": "213.7360247492142",
        "aphelion_distance": "3.032772511716619",
        "perihelion_time": "2458286.113824203258",
        "mean_anomaly": "344.9133745928266",
        "mean_motion": ".3625387883960011",
        "equinox": "J2000",
        "orbit_class": {
            "orbit_class_type": "APO",
            "orbit_class_description": "Near-Earth asteroid orbits which cross the Earth’s orbit similar to that of 1862 Apollo",
            "orbit_class_range": "a (semi-major axis) > 1.0 AU; q (perihelion) < 1.017 AU"
        }
    },
    "is_sentry_object": false
}